[{"OBJECT_NAME":"SHIJIAN-6 03B (SJ-6 03B)","OBJECT_ID":"2008-053B","EPOCH":"2026-03-09T23:28:00.216192","MEAN_MOTION":15.03879314,"ECCENTRICITY":0.00200774,"INCLINATION":97.8673,"RA_OF_ASC_NODE":87.2117,"ARG_OF_PERICENTER":21.0315,"MEAN_ANOMALY":339.1731,"EPHEMERIS_TYPE":0,"CLASSIFICATION_TYPE":"U","NORAD_CAT_ID":33409,"ELEMENT_SET_NO":999,"REV_AT_EPOCH":94783,"BSTAR":0.00032650966,"MEAN_MOTION_DOT":4.452e-5,"MEAN_MOTION_DDOT":0},{"OBJECT_NAME":"STARLINK-4411","OBJECT_ID":"2022-084P","EPOCH":"2026-03-09T17:09:48.696480","MEAN_MOTION":15.05645145,"ECCENTRICITY":0.00013602,"INCLINATION":97.604,"RA_OF_ASC_NODE":131.2593,"ARG_OF_PERICENTER":96.9961,"MEAN_ANOMALY":263.142,"EPHEMERIS_TYPE":0,"CLASSIFICATION_TYPE":"U","NORAD_CAT_ID":53202,"ELEMENT_SET_NO":999,"REV_AT_EPOCH":19938,"BSTAR":3.9795947e-5,"MEAN_MOTION_DOT":5.13e-6,"MEAN_MOTION_DDOT":0}]
